[{"OBJECT_NAME":"NANOSATC-BR1","OBJECT_ID":"2014-033Q","EPOCH":"2026-03-14T07:17:57.534432","MEAN_MOTION":15.28315368,"ECCENTRICITY":0.0005007,"INCLINATION":98.0842,"RA_OF_ASC_NODE":97.4678,"ARG_OF_PERICENTER":137.2432,"MEAN_ANOMALY":222.9196,"EPHEMERIS_TYPE":0,"CLASSIFICATION_TYPE":"U","NORAD_CAT_ID":40024,"ELEMENT_SET_NO":999,"REV_AT_EPOCH":63947,"BSTAR":0.00076934033,"MEAN_MOTION_DOT":0.0002118,"MEAN_MOTION_DDOT":0},{"OBJECT_NAME":"QB50P1","OBJECT_ID":"2014-033R","EPOCH":"2026-03-14T22:08:12.005952","MEAN_MOTION":15.16643252,"ECCENTRICITY":0.00089715,"INCLINATION":98.1006,"RA_OF_ASC_NODE":78.5591,"ARG_OF_PERICENTER":175.8999,"MEAN_ANOMALY":184.2308,"EPHEMERIS_TYPE":0,"CLASSIFICATION_TYPE":"U","NORAD_CAT_ID":40025,"ELEMENT_SET_NO":999,"REV_AT_EPOCH":63873,"BSTAR":0.00061890199,"MEAN_MOTION_DOT":0.00012053,"MEAN_MOTION_DDOT":0},{"OBJECT_NAME":"DTUSAT-2","OBJECT_ID":"2014-033W","EPOCH":"2026-03-14T22:45:18.391392","MEAN_MOTION":15.13642122,"ECCENTRICITY":0.00077134,"INCLINATION":98.0847,"RA_OF_ASC_NODE":65.8024,"ARG_OF_PERICENTER":182.7952,"MEAN_ANOMALY":177.3236,"EPHEMERIS_TYPE":0,"CLASSIFICATION_TYPE":"U","NORAD_CAT_ID":40030,"ELEMENT_SET_NO":999,"REV_AT_EPOCH":63842,"BSTAR":0.00056810386,"MEAN_MOTION_DOT":0.00010151,"MEAN_MOTION_DDOT":0},{"OBJECT_NAME":"QB50P2","OBJECT_ID":"2014-033Y","EPOCH":"2026-03-14T22:50:21.019488","MEAN_MOTION":15.13781635,"ECCENTRICITY":0.0009177,"INCLINATION":98.073,"RA_OF_ASC_NODE":65.0766,"ARG_OF_PERICENTER":127.2693,"MEAN_ANOMALY":232.9375,"EPHEMERIS_TYPE":0,"CLASSIFICATION_TYPE":"U","NORAD_CAT_ID":40032,"ELEMENT_SET_NO":999,"REV_AT_EPOCH":63840,"BSTAR":0.00058601779,"MEAN_MOTION_DOT":0.00010518,"MEAN_MOTION_DDOT":0},{"OBJECT_NAME":"PERSEUS-M1","OBJECT_ID":"2014-033AF","EPOCH":"2026-03-14T19:50:35.952864","MEAN_MOTION":14.95278087,"ECCENTRICITY":0.00103274,"INCLINATION":97.9551,"RA_OF_ASC_NODE":16.4836,"ARG_OF_PERICENTER":248.8012,"MEAN_ANOMALY":111.2106,"EPHEMERIS_TYPE":0,"CLASSIFICATION_TYPE":"U","NORAD_CAT_ID":40039,"ELEMENT_SET_NO":999,"REV_AT_EPOCH":63653,"BSTAR":0.00022299475,"MEAN_MOTION_DOT":2.397e-5,"MEAN_MOTION_DDOT":0},{"OBJECT_NAME":"POLYITAN-1","OBJECT_ID":"2014-033AJ","EPOCH":"2026-03-14T13:55:49.319616","MEAN_MOTION":15.29795133,"ECCENTRICITY":0.00095771,"INCLINATION":98.105,"RA_OF_ASC_NODE":91.1045,"ARG_OF_PERICENTER":114.5352,"MEAN_ANOMALY":245.6886,"EPHEMERIS_TYPE":0,"CLASSIFICATION_TYPE":"U","NORAD_CAT_ID":40042,"ELEMENT_SET_NO":999,"REV_AT_EPOCH":63911,"BSTAR":0.0010140887,"MEAN_MOTION_DOT":0.00029301,"MEAN_MOTION_DDOT":0},{"OBJECT_NAME":"TIGRISAT","OBJECT_ID":"2014-033AK","EPOCH":"2026-03-14T21:56:08.887200","MEAN_MOTION":14.84757904,"ECCENTRICITY":0.00500076,"INCLINATION":97.7679,"RA_OF_ASC_NODE":226.1813,"ARG_OF_PERICENTER":25.4527,"MEAN_ANOMALY":334.9134,"EPHEMERIS_TYPE":0,"CLASSIFICATION_TYPE":"U","NORAD_CAT_ID":40043,"ELEMENT_SET_NO":999,"REV_AT_EPOCH":63163,"BSTAR":0.00031440012,"MEAN_MOTION_DOT":2.671e-5,"MEAN_MOTION_DDOT":0},{"OBJECT_NAME":"AISAT","OBJECT_ID":"2014-034B","EPOCH":"2026-03-14T17:36:45.942048","MEAN_MOTION":15.0685022,"ECCENTRICITY":0.00094155,"INCLINATION":98.2454,"RA_OF_ASC_NODE":339.3824,"ARG_OF_PERICENTER":169.1096,"MEAN_ANOMALY":191.0336,"EPHEMERIS_TYPE":0,"CLASSIFICATION_TYPE":"U","NORAD_CAT_ID":40054,"ELEMENT_SET_NO":999,"REV_AT_EPOCH":63297,"BSTAR":0.0011358589,"MEAN_MOTION_DOT":0.00016915,"MEAN_MOTION_DDOT":0},{"OBJECT_NAME":"CANX-4","OBJECT_ID":"2014-034C","EPOCH":"2026-03-14T17:02:57.476544","MEAN_MOTION":14.81076346,"ECCENTRICITY":0.00120114,"INCLINATION":98.327,"RA_OF_ASC_NODE":305.4908,"ARG_OF_PERICENTER":319.6343,"MEAN_ANOMALY":40.3975,"EPHEMERIS_TYPE":0,"CLASSIFICATION_TYPE":"U","NORAD_CAT_ID":40055,"ELEMENT_SET_NO":999,"REV_AT_EPOCH":63054,"BSTAR":0.00017648376,"MEAN_MOTION_DOT":1.313e-5,"MEAN_MOTION_DDOT":0},{"OBJECT_NAME":"CANX-5","OBJECT_ID":"2014-034D","EPOCH":"2026-03-14T15:24:58.650336","MEAN_MOTION":14.81092907,"ECCENTRICITY":0.00120192,"INCLINATION":98.3273,"RA_OF_ASC_NODE":305.4579,"ARG_OF_PERICENTER":320.0911,"MEAN_ANOMALY":39.9416,"EPHEMERIS_TYPE":0,"CLASSIFICATION_TYPE":"U","NORAD_CAT_ID":40056,"ELEMENT_SET_NO":999,"REV_AT_EPOCH":62134,"BSTAR":0.00017789797,"MEAN_MOTION_DOT":1.325e-5,"MEAN_MOTION_DDOT":0},{"OBJECT_NAME":"VELOX-I","OBJECT_ID":"2014-034E","EPOCH":"2026-03-14T23:20:59.678016","MEAN_MOTION":14.96934529,"ECCENTRICITY":0.00066177,"INCLINATION":98.2615,"RA_OF_ASC_NODE":333.6654,"ARG_OF_PERICENTER":219.0044,"MEAN_ANOMALY":141.0699,"EPHEMERIS_TYPE":0,"CLASSIFICATION_TYPE":"U","NORAD_CAT_ID":40057,"ELEMENT_SET_NO":999,"REV_AT_EPOCH":63250,"BSTAR":0.00065257961,"MEAN_MOTION_DOT":7.439e-5,"MEAN_MOTION_DDOT":0},{"OBJECT_NAME":"GONETS-M 10","OBJECT_ID":"2014-036C","EPOCH":"2026-03-14T21:26:08.168640","MEAN_MOTION":12.42942612,"ECCENTRICITY":0.00220902,"INCLINATION":82.516,"RA_OF_ASC_NODE":6.2387,"ARG_OF_PERICENTER":350.8704,"MEAN_ANOMALY":9.1971,"EPHEMERIS_TYPE":0,"CLASSIFICATION_TYPE":"U","NORAD_CAT_ID":40063,"ELEMENT_SET_NO":999,"REV_AT_EPOCH":53053,"BSTAR":-0.00019344034,"MEAN_MOTION_DOT":-1.7e-7,"MEAN_MOTION_DDOT":0},{"OBJECT_NAME":"METEOR-M 2","OBJECT_ID":"2014-037A","EPOCH":"2026-03-14T23:06:20.678976","MEAN_MOTION":14.21431104,"ECCENTRICITY":0.00050501,"INCLINATION":98.5032,"RA_OF_ASC_NODE":53.0818,"ARG_OF_PERICENTER":320.9181,"MEAN_ANOMALY":39.1632,"EPHEMERIS_TYPE":0,"CLASSIFICATION_TYPE":"U","NORAD_CAT_ID":40069,"ELEMENT_SET_NO":999,"REV_AT_EPOCH":60593,"BSTAR":2.3762797e-5,"MEAN_MOTION_DOT":1.0e-7,"MEAN_MOTION_DDOT":0},{"OBJECT_NAME":"DX1","OBJECT_ID":"2014-037C","EPOCH":"2026-03-14T22:20:34.284768","MEAN_MOTION":14.89651227,"ECCENTRICITY":0.00062858,"INCLINATION":98.3759,"RA_OF_ASC_NODE":29.9948,"ARG_OF_PERICENTER":211.2958,"MEAN_ANOMALY":148.7885,"EPHEMERIS_TYPE":0,"CLASSIFICATION_TYPE":"U","NORAD_CAT_ID":40071,"ELEMENT_SET_NO":999,"REV_AT_EPOCH":63207,"BSTAR":0.00028409521,"MEAN_MOTION_DOT":2.654e-5,"MEAN_MOTION_DDOT":0},{"OBJECT_NAME":"UKUBE-1","OBJECT_ID":"2014-037F","EPOCH":"2026-03-14T21:53:28.777632","MEAN_MOTION":15.11922479,"ECCENTRICITY":0.00032888,"INCLINATION":98.4236,"RA_OF_ASC_NODE":67.4061,"ARG_OF_PERICENTER":103.563,"MEAN_ANOMALY":256.5965,"EPHEMERIS_TYPE":0,"CLASSIFICATION_TYPE":"U","NORAD_CAT_ID":40074,"ELEMENT_SET_NO":999,"REV_AT_EPOCH":63430,"BSTAR":0.00076390716,"MEAN_MOTION_DOT":0.00013028,"MEAN_MOTION_DDOT":0},{"OBJECT_NAME":"GAOFEN-2","OBJECT_ID":"2014-049A","EPOCH":"2026-03-14T23:36:23.148864","MEAN_MOTION":14.8077803,"ECCENTRICITY":0.00074512,"INCLINATION":98.0215,"RA_OF_ASC_NODE":138.2455,"ARG_OF_PERICENTER":168.158,"MEAN_ANOMALY":191.9809,"EPHEMERIS_TYPE":0,"CLASSIFICATION_TYPE":"U","NORAD_CAT_ID":40118,"ELEMENT_SET_NO":999,"REV_AT_EPOCH":62529,"BSTAR":2.9670239e-5,"MEAN_MOTION_DOT":1.75e-6,"MEAN_MOTION_DDOT":0},{"OBJECT_NAME":"BRITE-PL2 (HEWELIUSZ)","OBJECT_ID":"2014-049B","EPOCH":"2026-03-14T21:30:58.640256","MEAN_MOTION":14.94211481,"ECCENTRICITY":0.00151074,"INCLINATION":97.898,"RA_OF_ASC_NODE":185.2568,"ARG_OF_PERICENTER":65.3081,"MEAN_ANOMALY":294.971,"EPHEMERIS_TYPE":0,"CLASSIFICATION_TYPE":"U","NORAD_CAT_ID":40119,"ELEMENT_SET_NO":999,"REV_AT_EPOCH":62736,"BSTAR":0.00024555245,"MEAN_MOTION_DOT":2.578e-5,"MEAN_MOTION_DDOT":0}]
