NANOSATC-BR1            
1 40024U 14033Q   26073.30413813  .00021180  00000+0  76934-3 0  9995
2 40024  98.0842  97.4678 0005007 137.2432 222.9196 15.28315368639470
QB50P1                  
1 40025U 14033R   26073.92236118  .00012053  00000+0  61890-3 0  9999
2 40025  98.1006  78.5591 0008971 175.8999 184.2308 15.16643252638733
DTUSAT-2                
1 40030U 14033W   26073.94812953  .00010151  00000+0  56810-3 0  9997
2 40030  98.0847  65.8024 0007713 182.7952 177.3236 15.13642122638421
QB50P2                  
1 40032U 14033Y   26073.95163217  .00010518  00000+0  58602-3 0  9990
2 40032  98.0730  65.0766 0009177 127.2693 232.9375 15.13781635638404
PERSEUS-M1              
1 40039U 14033AF  26073.82680501  .00002397  00000+0  22299-3 0  9992
2 40039  97.9551  16.4836 0010327 248.8012 111.2106 14.95278087636536
POLYITAN-1              
1 40042U 14033AJ  26073.58043194  .00029301  00000+0  10141-2 0  9996
2 40042  98.1050  91.1045 0009577 114.5352 245.6886 15.29795133639118
TIGRISAT                
1 40043U 14033AK  26073.91399175  .00002671  00000+0  31440-3 0  9994
2 40043  97.7679 226.1813 0050007  25.4527 334.9134 14.84757904631633
AISAT                   
1 40054U 14034B   26073.73386507  .00016915  00000+0  11359-2 0  9994
2 40054  98.2454 339.3824 0009415 169.1096 191.0336 15.06850220632979
CANX-4                  
1 40055U 14034C   26073.71038746  .00001313  00000+0  17648-3 0  9996
2 40055  98.3270 305.4908 0012011 319.6343  40.3975 14.81076346630544
CANX-5                  
1 40056U 14034D   26073.64234549  .00001325  00000+0  17790-3 0  9999
2 40056  98.3273 305.4579 0012019 320.0911  39.9416 14.81092907621340
VELOX-I                 
1 40057U 14034E   26073.97291294  .00007439  00000+0  65258-3 0  9990
2 40057  98.2615 333.6654 0006617 219.0044 141.0699 14.96934529632507
GONETS-M 10             
1 40063U 14036C   26073.89315010 -.00000017  00000+0 -19344-3 0  9995
2 40063  82.5160   6.2387 0022090 350.8704   9.1971 12.42942612530539
METEOR-M 2              
1 40069U 14037A   26073.96273934  .00000010  00000+0  23763-4 0  9990
2 40069  98.5032  53.0818 0005050 320.9181  39.1632 14.21431104605935
DX1                     
1 40071U 14037C   26073.93095237  .00002654  00000+0  28410-3 0  9997
2 40071  98.3759  29.9948 0006285 211.2958 148.7885 14.89651227632079
UKUBE-1                 
1 40074U 14037F   26073.91213863  .00013028  00000+0  76391-3 0  9993
2 40074  98.4236  67.4061 0003288 103.5630 256.5965 15.11922479634307
GAOFEN-2                
1 40118U 14049A   26073.98360126  .00000175  00000+0  29670-4 0  9995
2 40118  98.0215 138.2455 0007451 168.1580 191.9809 14.80778030625294
BRITE-PL2 (HEWELIUSZ)   
1 40119U 14049B   26073.89651204  .00002578  00000+0  24555-3 0  9991
2 40119  97.8980 185.2568 0015107  65.3081 294.9710 14.94211481627361
